[{"OBJECT_NAME":"MOHAMMED VI-B","OBJECT_ID":"2018-095A","EPOCH":"2026-03-09T22:26:08.360736","MEAN_MOTION":14.77128516,"ECCENTRICITY":0.0001216,"INCLINATION":97.9414,"RA_OF_ASC_NODE":142.6736,"ARG_OF_PERICENTER":91.5089,"MEAN_ANOMALY":268.6261,"EPHEMERIS_TYPE":0,"CLASSIFICATION_TYPE":"U","NORAD_CAT_ID":43717,"ELEMENT_SET_NO":999,"REV_AT_EPOCH":39353,"BSTAR":0.00010160922,"MEAN_MOTION_DOT":6.68e-6,"MEAN_MOTION_DDOT":0},{"OBJECT_NAME":"COSMOS 2251 DEB","OBJECT_ID":"1993-036WX","EPOCH":"2026-03-09T16:23:43.851552","MEAN_MOTION":14.73415943,"ECCENTRICITY":0.00286612,"INCLINATION":74.0475,"RA_OF_ASC_NODE":154.6902,"ARG_OF_PERICENTER":228.7917,"MEAN_ANOMALY":253.8078,"EPHEMERIS_TYPE":0,"CLASSIFICATION_TYPE":"U","NORAD_CAT_ID":34626,"ELEMENT_SET_NO":999,"REV_AT_EPOCH":90424,"BSTAR":0.00090683372,"MEAN_MOTION_DOT":5.891e-5,"MEAN_MOTION_DDOT":0}]
